KUIPER-00091            
1 64836U 25151W   26193.13516237  .00001981  00000+0  28882-3 0  9999
2 64836  51.9006  92.8133 0000727 102.9351 257.1693 14.79936195 53974
KUIPER-00092            
1 64837U 25151X   26193.12706514  .00001064  00000+0  16862-3 0  9995
2 64837  51.9024 100.3402 0001376  78.4657 281.6459 14.79934489 55086
KUIPER-00093            
1 64838U 25151Y   26193.12436689  .00000427  00000+0  85046-4 0  9992
2 64838  51.8995 102.8269 0000746  99.8947 260.2100 14.79934657 53834
KUIPER-00094            
1 64839U 25151Z   26193.03788581  .00002145  00000+0  31056-3 0  9994
2 64839  51.9035  58.2995 0000993  98.5293 261.5782 14.79902420 54457
LEMUR-2-HUBBLE-5        
1 64840U 25135BT  26193.27048714  .00001131  00000+0  11093-3 0  9994
2 64840  97.7737 307.5509 0004192 247.2369 112.8409 14.94208283 57651
LEMUR-2-KARENDARRELL    
1 64841U 25135BU  26193.26224952  .00004300  00000+0  34583-3 0  9994
2 64841  97.7708 309.4353 0012107 113.3209 246.9290 15.00473291 57770
STARLINK-34723          
1 64842U 25152A   26193.03617575  .00003062  00000+0  21593-3 0  9997
2 64842  97.2848  46.0507 0002438  88.2383 271.9124 15.05663453 54121
STARLINK-34725          
1 64843U 25152B   26193.01955054  .00002465  00000+0  17464-3 0  9991
2 64843  97.2846  46.0790 0001796  88.3769 271.7664 15.05662436 54126
STARLINK-34709          
1 64844U 25152C   26193.02232391  .00003628  00000+0  25509-3 0  9996
2 64844  97.2842  46.0707 0002287  84.6097 275.5391 15.05666541 54120
STARLINK-34706          
1 64845U 25152D   26192.56820093  .00002537  00000+0  17956-3 0  9992
2 64845  97.2851  45.6166 0002778  87.3207 272.8339 15.05667405 54057
STARLINK-34736          
1 64846U 25152E   26192.59865408  .00000681  00000+0  51113-4 0  9997
2 64846  97.2863  45.7223 0002319  89.2274 270.9219 15.05658982 54069
STARLINK-34746          
1 64847U 25152F   26192.60419273  .00000553  00000+0  42238-4 0  9991
2 64847  97.2856  45.7235 0003551 108.8571 251.3042 15.05668837 54069
STARLINK-34748          
1 64848U 25152G   26193.05555802  .00002465  00000+0  17463-3 0  9996
2 64848  97.2858  46.1804 0003151  85.4708 274.6880 15.05658540 54133
STARLINK-34756          
1 64849U 25152H   26193.00571169  .00001589  00000+0  11399-3 0  9994
2 64849  97.2852  46.1103 0002174  83.7141 276.4334 15.05659573 54126
STARLINK-34757          
1 64850U 25152J   26193.01402808  .00004307  00000+0  30207-3 0  9990
2 64850  97.2835  46.0795 0002320  76.6358 283.5129 15.05669543 54128
STARLINK-34722          
1 64851U 25152K   26192.55990318  .00003902  00000+0  27408-3 0  9996
2 64851  97.2850  45.6291 0002365  91.0004 269.1494 15.05663103 54053
STARLINK-34564          
1 64852U 25152L   26193.00847935  .00004739  00000+0  33193-3 0  9991
2 64852  97.2833  46.0874 0001589  70.7688 289.3711 15.05675493 54125
STARLINK-34676          
1 64853U 25152M   26193.02785056 -.00001962  00000+0 -13214-3 0  9998
2 64853  97.2833  46.0615 0002334  88.2415 271.9080 15.05651243 54123
STARLINK-34682          
1 64854U 25152N   26193.04725199  .00002583  00000+0  18281-3 0  9990
2 64854  97.2855  46.1961 0002729  78.3703 281.7831 15.05659452 54135
STARLINK-34631          
1 64855U 25152P   26192.54604208  .00004377  00000+0  30702-3 0  9997
2 64855  97.2853  45.6473 0001769  84.5693 275.5737 15.05659766 54051
STARLINK-34578          
1 64856U 25152Q   26193.30754781  .00004473  00000+0  31364-3 0  9997
2 64856  97.2807  46.4483 0002262 102.0789 258.0692 15.05658542 54172
STARLINK-34683          
1 64857U 25152R   26192.60142259  .00000710  00000+0  53076-4 0  9996
2 64857  97.2867  45.7316 0002156  80.4106 279.7366 15.05660098 54065
STARLINK-34654          
1 64858U 25152S   26193.04448240  .00001530  00000+0  10989-3 0  9991
2 64858  97.2857  46.1884 0002648  89.4448 270.7083 15.05660780 54137
STARLINK-34575          
1 64859U 25152T   26193.03894467  .00000430  00000+0  33677-4 0  9995
2 64859  97.2844  46.2023 0002167  90.2835 269.8641 15.05659495 54136
STARLINK-34570          
1 64860U 25152U   26193.03064165  .00002545  00000+0  18015-3 0  9998
2 64860  97.2840  46.0693 0002468  82.4209 277.7299 15.05667424 54124
STARLINK-34651          
1 64861U 25152V   26193.01679088  .00004302  00000+0  30173-3 0  9995
2 64861  97.2850  46.1001 0001749  86.1995 273.9433 15.05669942 54129
STARLINK-34684          
1 64862U 25152W   26193.32415863  .00001637  00000+0  11732-3 0  9997
2 64862  97.2858  46.4361 0002354  93.7641 266.3856 15.05657505 54177
STARLINK-34690          
1 64863U 25152X   26193.05002241  .00003578  00000+0  25168-3 0  9994
2 64863  97.2849  46.1934 0002501  92.2593 267.8921 15.05658506 54132
STARLINK-34628          
1 64864U 25152Y   26193.26049240  .00004954  00000+0  34698-3 0  9995
2 64864  97.2863  46.3625 0002264  90.8362 269.3125 15.05655611 54162
STARLINK-34544          
1 64865U 25152Z   26193.05279197  .00006573  00000+0  45888-3 0  9991
2 64865  97.2838  46.1829 0002483  94.1699 265.9813 15.05663476 54133
