OBJECT_NAME,OBJECT_ID,EPOCH,MEAN_MOTION,ECCENTRICITY,INCLINATION,RA_OF_ASC_NODE,ARG_OF_PERICENTER,MEAN_ANOMALY,EPHEMERIS_TYPE,CLASSIFICATION_TYPE,NORAD_CAT_ID,ELEMENT_SET_NO,REV_AT_EPOCH,BSTAR,MEAN_MOTION_DOT,MEAN_MOTION_DDOT
KUIPER-00091,2025-151W,2026-07-12T03:14:38.028768,14.79936195,.00007277,51.9006,92.8133,102.9351,257.1693,0,U,64836,999,5397,.28882241E-3,.1981E-4,0
KUIPER-00092,2025-151X,2026-07-12T03:02:58.428096,14.79934489,.00013763,51.9024,100.3402,78.4657,281.6459,0,U,64837,999,5508,.16862387E-3,.1064E-4,0
KUIPER-00093,2025-151Y,2026-07-12T02:59:05.299296,14.79934657,.0000746,51.8995,102.8269,99.8947,260.2100,0,U,64838,999,5383,.85046424E-4,.427E-5,0
KUIPER-00094,2025-151Z,2026-07-12T00:54:33.333984,14.79902420,.00009935,51.9035,58.2995,98.5293,261.5782,0,U,64839,999,5445,.31055822E-3,.2145E-4,0
LEMUR-2-HUBBLE-5,2025-135BT,2026-07-12T06:29:30.088896,14.94208283,.00041925,97.7737,307.5509,247.2369,112.8409,0,U,64840,999,5765,.11092781E-3,.1131E-4,0
LEMUR-2-KARENDARRELL,2025-135BU,2026-07-12T06:17:38.358528,15.00473291,.00121076,97.7708,309.4353,113.3209,246.9290,0,U,64841,999,5777,.34583271E-3,.43E-4,0
STARLINK-34723,2025-152A,2026-07-12T00:52:05.584800,15.05663453,.00024386,97.2848,46.0507,88.2383,271.9124,0,U,64842,999,5412,.21593472E-3,.3062E-4,0
STARLINK-34725,2025-152B,2026-07-12T00:28:09.166656,15.05662436,.0001796,97.2846,46.0790,88.3769,271.7664,0,U,64843,999,5412,.17464355E-3,.2465E-4,0
STARLINK-34709,2025-152C,2026-07-12T00:32:08.785824,15.05666541,.00022872,97.2842,46.0707,84.6097,275.5391,0,U,64844,999,5412,.25508624E-3,.3628E-4,0
STARLINK-34706,2025-152D,2026-07-11T13:38:12.560352,15.05667405,.00027784,97.2851,45.6166,87.3207,272.8339,0,U,64845,999,5405,.1795643E-3,.2537E-4,0
STARLINK-34736,2025-152E,2026-07-11T14:22:03.712512,15.05658982,.00023192,97.2863,45.7223,89.2274,270.9219,0,U,64846,999,5406,.51113202E-4,.681E-5,0
STARLINK-34746,2025-152F,2026-07-11T14:30:02.251872,15.05668837,.00035512,97.2856,45.7235,108.8571,251.3042,0,U,64847,999,5406,.42237717E-4,.553E-5,0
STARLINK-34748,2025-152G,2026-07-12T01:20:00.212928,15.05658540,.00031518,97.2858,46.1804,85.4708,274.6880,0,U,64848,999,5413,.17463001E-3,.2465E-4,0
STARLINK-34756,2025-152H,2026-07-12T00:08:13.490016,15.05659573,.00021747,97.2852,46.1103,83.7141,276.4334,0,U,64849,999,5412,.11399397E-3,.1589E-4,0
STARLINK-34757,2025-152J,2026-07-12T00:20:12.026112,15.05669543,.00023208,97.2835,46.0795,76.6358,283.5129,0,U,64850,999,5412,.30207483E-3,.4307E-4,0
STARLINK-34722,2025-152K,2026-07-11T13:26:15.634752,15.05663103,.0002365,97.2850,45.6291,91.0004,269.1494,0,U,64851,999,5405,.27408359E-3,.3902E-4,0
STARLINK-34564,2025-152L,2026-07-12T00:12:12.615840,15.05675493,.00015894,97.2833,46.0874,70.7688,289.3711,0,U,64852,999,5412,.33192863E-3,.4739E-4,0
STARLINK-34676,2025-152M,2026-07-12T00:40:06.288384,15.05651243,.00023348,97.2833,46.0615,88.2415,271.9080,0,U,64853,999,5412,-.13213806E-3,-.1962E-4,0
STARLINK-34682,2025-152N,2026-07-12T01:08:02.571936,15.05659452,.00027291,97.2855,46.1961,78.3703,281.7831,0,U,64854,999,5413,.18281217E-3,.2583E-4,0
STARLINK-34631,2025-152P,2026-07-11T13:06:18.035712,15.05659766,.00017694,97.2853,45.6473,84.5693,275.5737,0,U,64855,999,5405,.30701906E-3,.4377E-4,0
STARLINK-34578,2025-152Q,2026-07-12T07:22:52.130784,15.05658542,.00022621,97.2807,46.4483,102.0789,258.0692,0,U,64856,999,5417,.31363709E-3,.4473E-4,0
STARLINK-34683,2025-152R,2026-07-11T14:26:02.911776,15.05660098,.00021569,97.2867,45.7316,80.4106,279.7366,0,U,64857,999,5406,.53076387E-4,.71E-5,0
STARLINK-34654,2025-152S,2026-07-12T01:04:03.279360,15.05660780,.00026483,97.2857,46.1884,89.4448,270.7083,0,U,64858,999,5413,.109886E-3,.153E-4,0
STARLINK-34575,2025-152T,2026-07-12T00:56:04.819488,15.05659495,.00021673,97.2844,46.2023,90.2835,269.8641,0,U,64859,999,5413,.33677141E-4,.43E-5,0
STARLINK-34570,2025-152U,2026-07-12T00:44:07.438560,15.05667424,.00024682,97.2840,46.0693,82.4209,277.7299,0,U,64860,999,5412,.18015127E-3,.2545E-4,0
STARLINK-34651,2025-152V,2026-07-12T00:24:10.732032,15.05669942,.00017497,97.2850,46.1001,86.1995,273.9433,0,U,64861,999,5412,.30172946E-3,.4302E-4,0
STARLINK-34684,2025-152W,2026-07-12T07:46:47.305632,15.05657505,.00023544,97.2858,46.4361,93.7641,266.3856,0,U,64862,999,5417,.11731966E-3,.1637E-4,0
STARLINK-34690,2025-152X,2026-07-12T01:12:01.936224,15.05658506,.0002501,97.2849,46.1934,92.2593,267.8921,0,U,64863,999,5413,.2516829E-3,.3578E-4,0
STARLINK-34628,2025-152Y,2026-07-12T06:15:06.543360,15.05655611,.0002264,97.2863,46.3625,90.8362,269.3125,0,U,64864,999,5416,.34697806E-3,.4954E-4,0
STARLINK-34544,2025-152Z,2026-07-12T01:16:01.226208,15.05663476,.00024831,97.2838,46.1829,94.1699,265.9813,0,U,64865,999,5413,.4588843E-3,.6573E-4,0
